satname,norad_id,inclination_deg,eccentricity,mean_motion_rev_per_day,perigee_km,apogee_km,l1,l2
STARLINK-1297,45395,53.0512,0.000202,15.49274294,417.47479770008795,420.2207795546947,1 45395U 20019AM  26043.82568500  .00094450  00000+0  16877-2 0  9999,2 45395  53.0512 250.2928 0002020 150.0949 210.0174 15.49274294325556
STARLINK-1307,45397,53.0547,0.000144,15.48548682,419.99181841698737,421.94996148929295,1 45397U 20019AP  26043.78203530  .00041697  00000+0  77401-3 0  9991,2 45397  53.0547 250.1160 0001440 116.8965 243.2189 15.48548682326195
STARLINK-1255,45399,53.0435,0.0003905,15.4721488,422.22127319881747,427.5344277970553,1 45399U 20019AR  26043.79128115  .00107715  00000+0  20629-2 0  9992,2 45399  53.0435 222.1331 0003905 125.3172 234.8200 15.47214880326576
STARLINK-1260,45404,53.1611,0.0001412,15.30190213,474.27659435455644,476.21198923135944,1 45404U 20019AW  26043.81280155 -.00000588  00000+0 -77116-5 0  9993,2 45404  53.1611 244.7929 0001412  64.2153 295.8993 15.30190213326160
STARLINK-1263,45405,53.1561,0.0001468,15.30185604,474.2519752235503,476.2641320112916,1 45405U 20019AX  26043.80122197 -.00002203  00000+0 -62282-4 0  9997,2 45405  53.1561 244.8985 0001468  53.2413 306.8722 15.30185604326167
STARLINK-1265,45406,53.1601,0.0001284,15.30172609,474.4168743210439,476.17683613506597,1 45406U 20019AY  26043.91670139  .00038700  00000+0  13131-2 0  9990,2 45406  53.1601 244.4141 0001284  77.3455 117.9573 15.30172609  5847
STARLINK-1278,45408,53.0489,0.000552,15.50751002,410.782581983628,418.2816887090512,1 45408U 20019BA  26043.81547913  .00051262  00000+0  87743-3 0  9993,2 45408  53.0489 250.3456 0005520 115.9382 244.2195 15.50751002326091
STARLINK-1296,45412,53.158,0.0001327,15.30191324,474.33153125664467,476.15041777108127,1 45412U 20019BE  26043.80964134 -.00001112  00000+0 -25425-4 0  9996,2 45412  53.1580 244.8324 0001327  76.3931 283.7217 15.30191324326166
STARLINK-1298,45413,53.0379,0.0005688,15.83802219,315.8897925902711,323.5092514177022,1 45413U 20019BF  26043.91670139  .00205152  00000+0  88747-3 0  9991,2 45413  53.0379 179.9972 0005688 262.2751 164.6195 15.83802219  5817
STARLINK-1309,45414,53.0692,4.07e-05,15.50156679,415.9916777076505,416.5447422917441,1 45414U 20019BG  26043.91670139  .00079044  00000+0  13732-2 0  9992,2 45414  53.0692 242.8488 0000407  93.1021 331.5575 15.50156679  5849
STARLINK-1316,45415,53.1588,0.0001427,15.30212731,474.19908929568373,476.15502512761304,1 45415U 20019BH  26043.78963742  .00006987  00000+0  24771-3 0  9995,2 45415  53.1588 244.9571 0001427  96.0086 264.1077 15.30212731326188
STARLINK-1318,45416,53.0328,0.0006458,15.94894174,284.3038899986259,292.91465948708355,1 45416U 20019BJ  26043.91670139  .00443621  89852-4  11267-2 0  9998,2 45416  53.0328 165.9536 0006458 314.3978  43.8879 15.94894174  6058
STARLINK-1286,45417,53.0486,0.0001988,15.48967717,418.393195198767,421.09603292851807,1 45417U 20019BK  26043.77963684  .00032839  00000+0  60312-3 0  9997,2 45417  53.0486 250.2309 0001988  86.2190 273.9045 15.48967717326367
STARLINK-1308,45419,53.0553,0.0002325,15.42804139,436.25311242065345,439.4225407150079,1 45419U 20019BM  26043.82042447  .00017484  00000+0  40158-3 0  9995,2 45419  53.0553 271.0095 0002325 125.0724 235.0499 15.42804139325822
STARLINK-1329,45531,53.0518,0.0005503,15.51162691,409.5928577565619,417.0675465592567,1 45531U 20025A   26043.80995664  .00111093  00000+0  18508-2 0  9997,2 45531  53.0518 201.3765 0005503 168.4137 191.6999 15.51162691321589
STARLINK-1338,45532,53.0507,0.0004863,15.50066322,413.2280009848864,419.8364962961141,1 45532U 20025B   26043.91670139  .00143430  00000+0  24721-2 0  9991,2 45532  53.0507 204.0107 0004863 215.4899 156.6859 15.50066322  5896
STARLINK-1350,45535,53.0722,0.0001004,15.35438079,458.93307833145536,460.3060998545452,1 45535U 20025E   26043.67056355  .00012391  00000+0  36508-3 0  9993,2 45535  53.0722 150.5799 0001004  69.1233 290.9876 15.35438079322315
STARLINK-1362,45538,53.1549,0.0001155,15.29357792,476.93905190109217,478.5227573870643,1 45538U 20025H   26043.83089240  .00002939  00000+0  11414-3 0  9999,2 45538  53.1549 216.4066 0001155  92.7282 267.3851 15.29357792321379
STARLINK-1368,45540,53.1537,0.000146,15.27944401,480.9565913221322,482.95973911037436,1 45540U 20025K   26043.91670139  .00591388  00000+0  19998-1 0  9998,2 45540  53.1537 216.3601 0001460  95.3713 316.0623 15.27944401  5678
STARLINK-1371,45542,53.052,0.0004035,15.43546859,432.90182522052146,438.4005522888465,1 45542U 20025M   26043.71326701  .00019946  00000+0  44541-3 0  9990,2 45542  53.0520 208.3640 0004035 174.4594 185.6456 15.43546859321478
STARLINK-1372,45543,53.1603,0.0001343,15.30189707,474.3253933238793,476.16621194466643,1 45543U 20025N   26043.69204130 -.00000554  00000+0 -65879-5 0  9995,2 45543  53.1603 217.1288 0001343  93.2772 266.8383 15.30189707320441
STARLINK-1373,45544,53.0501,0.0004268,15.45958731,425.65738744043483,431.46758612235135,1 45544U 20025P   26043.71746473  .00039653  00000+0  80542-3 0  9992,2 45544  53.0501 208.5054 0004268 240.9080 119.1499 15.45958731321474
STARLINK-1294,45551,53.0322,0.0008837,15.9120337,293.013817008321,304.8148375241317,1 45551U 20025W   26043.91670139  .00349629  57003-4  10784-2 0  9994,2 45551  53.0322 102.0051 0008837  12.4934  57.4383 15.91203370  6057
STARLINK-1327,45555,53.0499,0.0002282,15.49153767,417.6491769200302,420.7514816771227,1 45555U 20025AA  26043.78691564  .00061193  00000+0  11056-2 0  9998,2 45555  53.0499 186.3873 0002282 304.3980  55.6812 15.49153767321789
STARLINK-1356,45564,53.0533,0.00033,15.41961872,438.0695733513194,442.5697547495929,1 45564U 20025AK  26043.79934069  .00062767  00000+0  14493-2 0  9995,2 45564  53.0533 192.0888 0003300 295.5211  64.5452 15.41961872321705
STARLINK-1357,45565,53.0541,0.0001091,15.50440543,414.6976984572402,416.18005671372975,1 45565U 20025AL  26043.67824260  .00090116  00000+0  15466-2 0  9994,2 45565  53.0541 158.5307 0001091 289.4084  70.6807 15.50440543322174
STARLINK-1361,45567,53.0517,0.000345,15.43069396,434.7054417244726,439.40792536612025,1 45567U 20025AN  26043.91670139  .00125063  00000+0  27511-2 0  9991,2 45567  53.0517 191.9508 0003450 300.2450  40.6647 15.43069396  5748
STARLINK-1363,45568,53.0442,0.000654,15.70491917,353.08503153383754,361.89523182207176,1 45568U 20025AP  26043.91670139  .00154491  00000+0  12150-2 0  9992,2 45568  53.0442 160.9019 0006540 334.5882 307.8048 15.70491917  5764
STARLINK-1366,45569,53.0447,0.0006128,15.7012859,354.40094316217437,362.65740122281386,1 45569U 20025AQ  26043.91670139  .00151106  00000+0  12073-2 0  9997,2 45569  53.0447 161.5669 0006128 330.3175 279.7127 15.70128590  5915
STARLINK-1376,45570,53.161,0.0001272,15.29376573,476.8027178017983,478.5468363178834,1 45570U 20025AR  26043.82070943  .00006475  00000+0  23636-3 0  9992,2 45570  53.1610 193.1670 0001272 102.0329 258.0814 15.29376573321692
STARLINK-1320,45572,53.0496,0.0007268,15.63382387,372.98471764516216,382.80528576283905,1 45572U 20025AT  26043.60167719  .00120645  00000+0  12709-2 0  9992,2 45572  53.0496 109.0756 0007268 313.8669  46.1744 15.63382387322873
STARLINK-1321,45573,53.0502,0.0002089,15.44142178,432.47674462444775,435.3228135907584,1 45573U 20025AU  26043.74257722  .00083683  00000+0  17881-2 0  9998,2 45573  53.0502 177.4993 0002089 259.2984 100.7786 15.44142178321607
STARLINK-1331,45578,53.0542,0.0001116,15.44254283,432.8099091441927,434.33028216794355,1 45578U 20025AZ  26043.81434294  .00020285  00000+0  44221-3 0  9990,2 45578  53.0542 183.8176 0001116  70.2178 289.8947 15.44254283321830
STARLINK-1333,45580,53.1598,0.0001269,15.30193592,474.36450981343205,476.103895424656,1 45580U 20025BB  26043.74311475  .00001553  00000+0  64550-4 0  9995,2 45580  53.1598 193.6775 0001269  99.2581 260.8564 15.30193592321684
STARLINK-1335,45581,53.0569,0.0001407,15.06396167,546.2489073611423,548.1977037511251,1 45581U 20025BC  26043.78339117  .00000616  00000+0  60272-4 0  9999,2 45581  53.0569 188.4283 0001407  83.1360 276.9789 15.06396167321750
STARLINK-1337,45582,53.0544,0.0001207,15.53643944,405.2785265746643,406.916240754882,1 45582U 20025BD  26043.82566539  .00031609  00000+0  49197-3 0  9993,2 45582  53.0544 182.1108 0001207  61.4320 298.6811 15.53643944321841
STARLINK-1347,45586,53.0488,0.0004344,15.49272744,415.8997099154012,421.804934238422,1 45586U 20025BH  26043.56003234  .00082094  00000+0  14700-2 0  9991,2 45586  53.0488 150.3641 0004344 296.2410  63.8151 15.49272744322261
STARLINK-1364,45589,53.0537,0.0003641,15.45246123,428.17590324890443,433.1340655719532,1 45589U 20025BL  26043.75471898  .00075764  00000+0  15616-2 0  9993,2 45589  53.0537 182.3541 0003641 317.7842  42.2883 15.45246123321833
STARLINK-1365,45590,53.0531,6.14e-05,15.42632929,437.92360200326493,438.7606656408989,1 45590U 20025BM  26043.67942472  .00019784  00000+0  45564-3 0  9993,2 45590  53.0531 212.4247 0000614 166.1366 193.9656 15.42632929321428
STARLINK-1443,45660,53.0562,0.0001239,15.06397097,546.362403440754,548.07850701816,1 45660U 20035D   26043.81011222  .00001552  00000+0  12306-3 0  9990,2 45660  53.0562 178.3078 0001239  90.5763 269.5368 15.06397097314984
STARLINK-1446,45663,53.0249,0.0002586,15.4173474,439.2258956254691,442.75274775904745,1 45663U 20035G   26043.60366727  .00019073  00000+0  45294-3 0  9992,2 45663  53.0249 118.4354 0002586 171.6702 188.4345 15.41734740315806
STARLINK-1448,45665,53.0526,0.0004157,15.47355986,421.63641727601225,427.29209996242844,1 45665U 20035J   26043.82150944  .00087240  00000+0  16685-2 0  9992,2 45665  53.0526 172.0028 0004157 350.5732   9.5196 15.47355986315069
STARLINK-1451,45668,53.0532,0.0001916,15.08765926,538.6443035462898,541.2953220769587,1 45668U 20035M   26043.58493936  .00034480  00000+0  21781-2 0  9990,2 45668  53.0532 179.2835 0001916 185.5582 174.5387 15.08765926314951
